{
    "links": {
        "self": "http://www.neowsapp.com/rest/v1/neo/3752034?api_key=iIulBulltgU6a56xZRHN4H3l9WmuAYTsLGpBGhQ2"
    },
    "id": "3752034",
    "neo_reference_id": "3752034",
    "name": "(2016 GK222)",
    "designation": "2016 GK222",
    "nasa_jpl_url": "http://ssd.jpl.nasa.gov/sbdb.cgi?sstr=3752034",
    "absolute_magnitude_h": 21.0,
    "estimated_diameter": {
        "kilometers": {
            "estimated_diameter_min": 0.1677084622,
            "estimated_diameter_max": 0.3750075218
        },
        "meters": {
            "estimated_diameter_min": 167.7084621628,
            "estimated_diameter_max": 375.0075217981
        },
        "miles": {
            "estimated_diameter_min": 0.1042091748,
            "estimated_diameter_max": 0.2330187988
        },
        "feet": {
            "estimated_diameter_min": 550.2246310023,
            "estimated_diameter_max": 1230.3396778159
        }
    },
    "is_potentially_hazardous_asteroid": false,
    "close_approach_data": [
        {
            "close_approach_date": "1986-04-06",
            "close_approach_date_full": "1986-Apr-06 19:39",
            "epoch_date_close_approach": 513200340000,
            "relative_velocity": {
                "kilometers_per_second": "17.0008386142",
                "kilometers_per_hour": "61203.019011188",
                "miles_per_hour": "38029.1758961463"
            },
            "miss_distance": {
                "astronomical": "0.2643613176",
                "lunar": "102.8365525464",
                "kilometers": "39547890.023353512",
                "miles": "24573919.3527299856"
            },
            "orbiting_body": "Earth"
        },
        {
            "close_approach_date": "2005-04-13",
            "close_approach_date_full": "2005-Apr-13 09:20",
            "epoch_date_close_approach": 1113384000000,
            "relative_velocity": {
                "kilometers_per_second": "22.093271048",
                "kilometers_per_hour": "79535.7757728018",
                "miles_per_hour": "49420.4380072723"
            },
            "miss_distance": {
                "astronomical": "0.3630517964",
                "lunar": "141.2271487996",
                "kilometers": "54311775.441113668",
                "miles": "33747772.3541098984"
            },
            "orbiting_body": "Earth"
        },
        {
            "close_approach_date": "2016-04-07",
            "close_approach_date_full": "2016-Apr-07 03:50",
            "epoch_date_close_approach": 1460001000000,
            "relative_velocity": {
                "kilometers_per_second": "15.4211178206",
                "kilometers_per_hour": "55516.0241539854",
                "miles_per_hour": "34495.4984527917"
            },
            "miss_distance": {
                "astronomical": "0.4733692206",
                "lunar": "184.1406268134",
                "kilometers": "70815027.125320122",
                "miles": "44002417.4364648036"
            },
            "orbiting_body": "Earth"
        },
        {
            "close_approach_date": "2035-04-07",
            "close_approach_date_full": "2035-Apr-07 06:31",
            "epoch_date_close_approach": 2059540260000,
            "relative_velocity": {
                "kilometers_per_second": "17.3506388776",
                "kilometers_per_hour": "62462.2999592909",
                "miles_per_hour": "38811.6441052605"
            },
            "miss_distance": {
                "astronomical": "0.2564307321",
                "lunar": "99.7515547869",
                "kilometers": "38361491.324700627",
                "miles": "23836725.3855255726"
            },
            "orbiting_body": "Earth"
        }
    ],
    "orbital_data": {
        "orbit_id": "8",
        "orbit_determination_date": "2017-04-06 08:26:28",
        "first_observation_date": "2016-04-14",
        "last_observation_date": "2016-05-10",
        "data_arc_in_days": 26,
        "observations_used": 43,
        "orbit_uncertainty": "6",
        "minimum_orbit_intersection": ".247458",
        "jupiter_tisserand_invariant": "3.598",
        "epoch_osculation": "2459000.5",
        "eccentricity": ".4653583923877623",
        "semi_major_axis": "1.949273866583766",
        "inclination": "31.05795349493687",
        "ascending_node_longitude": "209.5442247651092",
        "orbital_period": "994.0488275302771",
        "perihelion_distance": "1.042162913706867",
        "perihelion_argument": "290.7411371105104",
        "aphelion_distance": "2.856384819460665",
        "perihelion_time": "2459395.059406392895",
        "mean_anomaly": "217.1082401914348",
        "mean_motion": ".3621552483437088",
        "equinox": "J2000",
        "orbit_class": {
            "orbit_class_type": "AMO",
            "orbit_class_description": "Near-Earth asteroid orbits similar to that of 1221 Amor",
            "orbit_class_range": "1.017 AU < q (perihelion) < 1.3 AU"
        }
    },
    "is_sentry_object": false
}